hospital_name,hospital_type,phone,email,website,street_address,suburb,postcode,state,full_address,local_health_district,services,source
Albury Wodonga Health,No emergency department,02 6058 4444,,,201 Borella Road,Albury,2640,NSW,"201 Borella Road, Albury, NSW, 2640",Albury Wodonga Health,No emergency department,NSW Health API
Armidale Rural Referral Hospital,Reporting wait times,02 6776 9500,,,Rusden Street,Armidale,2350,NSW,"Rusden Street, Armidale, NSW, 2350",Hunter New England Local Health District,Reporting wait times,NSW Health API
Auburn Hospital & Community Health Services,Reporting wait times,02 8759 3000,,,Hargrave Road,Auburn,2144,NSW,"Hargrave Road, Auburn, NSW, 2144",Western Sydney Local Health District,Reporting wait times,NSW Health API
Ballina District Hospital,Not reporting wait times,02 6686 2111,,,Cherry Street,Ballina,2478,NSW,"Cherry Street, Ballina, NSW, 2478",Northern NSW Local Health District,Not reporting wait times,NSW Health API
Balmain Hospital,No emergency department,02 9395 2111,,,29 Booth Street,Balmain,2041,NSW,"29 Booth Street, Balmain, NSW, 2041",Sydney Local Health District,No emergency department,NSW Health API
Balranald District Hospital,Not reporting wait times,03 5020 1606,,,Market Street,Balranald,2715,NSW,"Market Street, Balranald, NSW, 2715",Far West Local Health District,Not reporting wait times,NSW Health API
Bankstown Lidcombe Hospital,Reporting wait times,02 9722 8000,,,Eldridge Road,Bankstown,2200,NSW,"Eldridge Road, Bankstown, NSW, 2200",South Western Sydney Local Health District,Reporting wait times,NSW Health API
Baradine Multi-Purpose Service,Not reporting wait times,02 6843 4100,,,Cnr Darling and Macquarie Street,Baradine,2396,NSW,"Cnr Darling and Macquarie Street, Baradine, NSW, 2396",Western NSW Local Health District,Not reporting wait times,NSW Health API
Baradine Residential Aged Care,No emergency department,02 6843 1909,,,Corner of Darling and Macquarie Street,Baradine,2396,NSW,"Corner of Darling and Macquarie Street, Baradine, NSW, 2396",Western NSW Local Health District,No emergency department,NSW Health API
Barham Koondrook Soldiers Memorial Hospital,Not reporting wait times,03 5451 1000,,,Punt Road,Barham,2732,NSW,"Punt Road, Barham, NSW, 2732",Murrumbidgee Local Health District,Not reporting wait times,NSW Health API
Barraba Multi Purpose Service,Not reporting wait times,02 6782 2500,,,Edward Street,Barraba,2347,NSW,"Edward Street, Barraba, NSW, 2347",Hunter New England Local Health District,Not reporting wait times,NSW Health API
Barraba Residential Aged Care,No emergency department,02 6782 2507,,,Edward Street,Barraba,2347,NSW,"Edward Street, Barraba, NSW, 2347",Hunter New England Local Health District,No emergency department,NSW Health API
Bateman's Bay District Hospital,Not reporting wait times,02 4475 1500,,,7 Pacific Street,Batemans Bay,2536,NSW,"7 Pacific Street, Batemans Bay, NSW, 2536",Southern NSW Local Health District,Not reporting wait times,NSW Health API
Bathurst Base Hospital,Reporting wait times,02 6330 5311,,,Howick Street,Bathurst,2795,NSW,"Howick Street, Bathurst, NSW, 2795",Western NSW Local Health District,Reporting wait times,NSW Health API
Batlow/Adelong Multi Purpose Service,Not reporting wait times,02 6941 4333,,,61-81 Pioneer Street,Batlow,2730,NSW,"61-81 Pioneer Street, Batlow, NSW, 2730",Murrumbidgee Local Health District,Not reporting wait times,NSW Health API
Batlow/Adelong Residential Aged Care,No emergency department,02 6941 4333,,,61-81 Pioneer Street,Batlow,2730,NSW,"61-81 Pioneer Street, Batlow, NSW, 2730",Murrumbidgee Local Health District,No emergency department,NSW Health API
Bega District Hospital,Not reporting wait times,02 6492 9111,,,McKee Drive,Bega,2550,NSW,"McKee Drive, Bega, NSW, 2550",Southern NSW Local Health District,Not reporting wait times,NSW Health API
Bellingen River District Hospital,Not reporting wait times,02 6659 5800,,,Church Street,Bellingen,2454,NSW,"Church Street, Bellingen, NSW, 2454",Mid North Coast Local Health District,Not reporting wait times,NSW Health API
Belmont Hospital,Reporting wait times,02 4923 2000,,,Croudace Bay Road,Belmont,2280,NSW,"Croudace Bay Road, Belmont, NSW, 2280",Hunter New England Local Health District,Reporting wait times,NSW Health API
Berrigan Residential Aged Care,No emergency department,03 5885 2208,,,Memorial Street,Berrigan,2712,NSW,"Memorial Street, Berrigan, NSW, 2712",Murrumbidgee Local Health District,No emergency department,NSW Health API
Berrigan War Memorial Hospital,Not reporting wait times,03 5885 2208,,,Memorial Street,Berrigan,2712,NSW,"Memorial Street, Berrigan, NSW, 2712",Murrumbidgee Local Health District,Not reporting wait times,NSW Health API
Bingara Multi Purpose Service,Not reporting wait times,02 6728 0100,,,Keera Road,Bingara,2404,NSW,"Keera Road, Bingara, NSW, 2404",Hunter New England Local Health District,Not reporting wait times,NSW Health API
Bingara Residential Aged Care,No emergency department,02 6728 0130,,,Keera Road,Bingara,2304,NSW,"Keera Road, Bingara, NSW, 2304",Hunter New England Local Health District,No emergency department,NSW Health API
Blacktown Hospital,Reporting wait times,02 9881 8000,,,Blacktown Road,Blacktown,2148,NSW,"Blacktown Road, Blacktown, NSW, 2148",Western Sydney Local Health District,Reporting wait times,NSW Health API
Blayney Multi-Purpose Health Service,Not reporting wait times,02 6368 9000,,,3 Osman Street,Blayney,2799,NSW,"3 Osman Street, Blayney, NSW, 2799",Western NSW Local Health District,Not reporting wait times,NSW Health API
Blue Mountains District ANZAC Memorial Hospital,Reporting wait times,02 4784 6500,,,Cnr Woodlands Road and Great Western Hwy,Katoomba,2780,NSW,"Cnr Woodlands Road and Great Western Hwy, Katoomba, NSW, 2780",Nepean Blue Mountains Local Health District,Reporting wait times,NSW Health API
Boggabri Multi-Purpose Service,Not reporting wait times,02 6749 7000,,,Wee Waa Street,Boggabri,2382,NSW,"Wee Waa Street, Boggabri, NSW, 2382",Hunter New England Local Health District,Not reporting wait times,NSW Health API
Boggabri Residential Aged Care,No emergency department,02 6749 7000,,,Wee Waa Street,Boggabri,2382,NSW,"Wee Waa Street, Boggabri, NSW, 2382",Hunter New England Local Health District,No emergency department,NSW Health API
Bombala Multi Purpose Service,Not reporting wait times,02 6458 5777,,,Wellington Street,Bombala,2632,NSW,"Wellington Street, Bombala, NSW, 2632",Southern NSW Local Health District,Not reporting wait times,NSW Health API
Bombala Residential Aged Care,No emergency department,02 6458 5777,,,Wellington Street,Bombala,2632,NSW,"Wellington Street, Bombala, NSW, 2632",Southern NSW Local Health District,No emergency department,NSW Health API
Bonalbo Hospital,Not reporting wait times,02 6665 1203,,,Clarence Way,Bonalbo,2469,NSW,"Clarence Way, Bonalbo, NSW, 2469",Northern NSW Local Health District,Not reporting wait times,NSW Health API
Boorowa District Hospital,Not reporting wait times,02 6385 3004,,,Dry Street,Boorowa,2586,NSW,"Dry Street, Boorowa, NSW, 2586",Murrumbidgee Local Health District,Not reporting wait times,NSW Health API
Boorowa Residential Aged Care,No emergency department,02 6385 3004,,,62 Dry Street,Boorowa,2586,NSW,"62 Dry Street, Boorowa, NSW, 2586",Murrumbidgee Local Health District,No emergency department,NSW Health API
Bourke District Hospital,Not reporting wait times,02 6870 8888,,,26 Tarcoon Street,Bourke,2840,NSW,"26 Tarcoon Street, Bourke, NSW, 2840",Western NSW Local Health District,Not reporting wait times,NSW Health API
Bourke Residential Aged Care,No emergency department,02 6870 8888,,,26 Tarcoon Street,Bourke,2840,NSW,"26 Tarcoon Street, Bourke, NSW, 2840",Western NSW Local Health District,No emergency department,NSW Health API
Bowral Hospital,Reporting wait times,02 4861 0200,,,Mona road,Bowral,2576,NSW,"Mona road, Bowral, NSW, 2576",South Western Sydney Local Health District,Reporting wait times,NSW Health API
Braeside Hospital,No emergency department,1300 225013,,,Locked Bag 82 Wetherill Park 1851<br/>340 Prairie Vale Road,Prairiewood,2176,NSW,"Locked Bag 82 Wetherill Park 1851<br/>340 Prairie Vale Road, Prairiewood, NSW, 2176",South Western Sydney Local Health District,No emergency department,NSW Health API
Braidwood Multi Purpose Service,Not reporting wait times,02 4842 2566,,,73 Monkittee Street,Braidwood,2622,NSW,"73 Monkittee Street, Braidwood, NSW, 2622",Southern NSW Local Health District,Not reporting wait times,NSW Health API
Braidwood Residential Aged Care,No emergency department,02 4842 2566,,,73 Monkittee Street,Braidwood,2622,NSW,"73 Monkittee Street, Braidwood, NSW, 2622",Southern NSW Local Health District,No emergency department,NSW Health API
Brewarrina Multi-Purpose Service,Not reporting wait times,02 6830 5000,,,56 Doyle Street,Brewarrina,2839,NSW,"56 Doyle Street, Brewarrina, NSW, 2839",Western NSW Local Health District,Not reporting wait times,NSW Health API
Brewarrina Residential Aged Care,No emergency department,02 6830 5000,,,56 Doyle Street,Brewarrina,2839,NSW,"56 Doyle Street, Brewarrina, NSW, 2839",Western NSW Local Health District,No emergency department,NSW Health API
Broken Hill Base Hospital,Reporting wait times,08 8080 1333,,,Thomas Street,Broken Hill,2880,NSW,"Thomas Street, Broken Hill, NSW, 2880",Far West Local Health District,Reporting wait times,NSW Health API
Bulahdelah Community Hospital,Not reporting wait times,02 4987 9900,,,Richmond Street,Bulahdelah,2423,NSW,"Richmond Street, Bulahdelah, NSW, 2423",Hunter New England Local Health District,Not reporting wait times,NSW Health API
Bulli Hospital,Not reporting wait times,02 4284 4344,,,Hospital Road,Bulli,2516,NSW,"Hospital Road, Bulli, NSW, 2516",Illawarra Shoalhaven Local Health District,Not reporting wait times,NSW Health API
Byron District Hospital,Not reporting wait times,02 6685 6200,,,Shirley & Wordsworth Sts,Byron Bay,2481,NSW,"Shirley & Wordsworth Sts, Byron Bay, NSW, 2481",Northern NSW Local Health District,Not reporting wait times,NSW Health API
Calvary Health Care Sydney,No emergency department,02 9553 3111,,,91-111 Rocky Point Road,Kogarah,2217,NSW,"91-111 Rocky Point Road, Kogarah, NSW, 2217",South Eastern Sydney Local Health District,No emergency department,NSW Health API
Calvary Mater Newcastle,Reporting wait times,02 4921 1211,,,20 Edith Street,Waratah,2298,NSW,"20 Edith Street, Waratah, NSW, 2298",Hunter New England Local Health District,Reporting wait times,NSW Health API
Camden Hospital,Not reporting wait times,02 4634 3000,,,Menangle Road,Camden,2570,NSW,"Menangle Road, Camden, NSW, 2570",South Western Sydney Local Health District,Not reporting wait times,NSW Health API
"Campbell Hospital, Coraki",Not reporting wait times,02 6683 2019,,,Spring Street,Coraki,2471,NSW,"Spring Street, Coraki, NSW, 2471",Northern NSW Local Health District,Not reporting wait times,NSW Health API
Campbelltown Hospital,Reporting wait times,02 4634 3000,,,Therry Road,Campbelltown,2560,NSW,"Therry Road, Campbelltown, NSW, 2560",South Western Sydney Local Health District,Reporting wait times,NSW Health API
Canowindra Soldiers Memorial Hospital,Not reporting wait times,02 6340 3033,,,Browns Avenue,Canowindra,2804,NSW,"Browns Avenue, Canowindra, NSW, 2804",Western NSW Local Health District,Not reporting wait times,NSW Health API
Canterbury Hospital,Reporting wait times,02 9787 0000,,,Canterbury Road,Campsie,2194,NSW,"Canterbury Road, Campsie, NSW, 2194",Sydney Local Health District,Reporting wait times,NSW Health API
Carrington Centennial Hospital,No emergency department,02 4659 0590,,,90 Werombi Road,Camden,2570,NSW,"90 Werombi Road, Camden, NSW, 2570",South Western Sydney Local Health District,No emergency department,NSW Health API
Casino & District Memorial Hospital,Not reporting wait times,02 6662 2111,,,Hotham Street,Casino,2470,NSW,"Hotham Street, Casino, NSW, 2470",Northern NSW Local Health District,Not reporting wait times,NSW Health API
Cessnock District Hospital,Reporting wait times,02 4991 0555,,,24 View Street,Cessnock,2325,NSW,"24 View Street, Cessnock, NSW, 2325",Hunter New England Local Health District,Reporting wait times,NSW Health API
Cobar District Hospital,Not reporting wait times,02 6830 2111,,,Lerida Road,Cobar,2835,NSW,"Lerida Road, Cobar, NSW, 2835",Western NSW Local Health District,Not reporting wait times,NSW Health API
Coffs Harbour Base Hospital,Reporting wait times,02 6656 7000,,,345 Pacific Highway,Coffs Harbour,2450,NSW,"345 Pacific Highway, Coffs Harbour, NSW, 2450",Mid North Coast Local Health District,Reporting wait times,NSW Health API
Coledale District Hospital,No emergency department,02 4267 2266,,,636 Lawrence Hargrave Drive,Coledale,2515,NSW,"636 Lawrence Hargrave Drive, Coledale, NSW, 2515",Illawarra Shoalhaven Local Health District,No emergency department,NSW Health API
Collarenebri Health Service,Not reporting wait times,02 6756 4888,,,Walgett Street,Collarenebri,2833,NSW,"Walgett Street, Collarenebri, NSW, 2833",Western NSW Local Health District,Not reporting wait times,NSW Health API
Collarenebri Residential Aged Care,No emergency department,02 6756 4888,,,Walgett Street,Collarenebri,2833,NSW,"Walgett Street, Collarenebri, NSW, 2833",Western NSW Local Health District,No emergency department,NSW Health API
Concord Repatriation General Hospital,Reporting wait times,02 9767 5000,,,Hospital Rd,Concord,2139,NSW,"Hospital Rd, Concord, NSW, 2139",Sydney Local Health District,Reporting wait times,NSW Health API
Condobolin District Hospital,Not reporting wait times,02 6890 1500,,,Madline Street,Condobolin,2877,NSW,"Madline Street, Condobolin, NSW, 2877",Western NSW Local Health District,Not reporting wait times,NSW Health API
Coolah Multi-Purpose Health Service,Not reporting wait times,02 6377 9100,,,Martin Street,Coolah,2843,NSW,"Martin Street, Coolah, NSW, 2843",Western NSW Local Health District,Not reporting wait times,NSW Health API
Coolah Residential Aged Care,No emergency department,02 6377 1177,,,Goddard Street,Coolah,2843,NSW,"Goddard Street, Coolah, NSW, 2843",Western NSW Local Health District,No emergency department,NSW Health API
Coolamon Residential Aged Care,No emergency department,02 6927 3303,,,Buchanan Drive,Coolamon,2701,NSW,"Buchanan Drive, Coolamon, NSW, 2701",Murrumbidgee Local Health District,No emergency department,NSW Health API
Coolamon-Ganmain Health Service,Not reporting wait times,02 6927 3303,,,Buchanan Dr,Coolamon,2701,NSW,"Buchanan Dr, Coolamon, NSW, 2701",Murrumbidgee Local Health District,Not reporting wait times,NSW Health API
Cooma Hospital & Health Service,Not reporting wait times,02 6455 3222,,,Bent Street,Cooma,2630,NSW,"Bent Street, Cooma, NSW, 2630",Southern NSW Local Health District,Not reporting wait times,NSW Health API
Coonabarabran District Hospital,Not reporting wait times,02 6826 6100,,,101-103 Edwards Street,Coonabarabran,2357,NSW,"101-103 Edwards Street, Coonabarabran, NSW, 2357",Western NSW Local Health District,Not reporting wait times,NSW Health API
Coonamble Health Service,Not reporting wait times,02 6822 9300,,,15 Castlereagh Street,Coonamble,2829,NSW,"15 Castlereagh Street, Coonamble, NSW, 2829",Western NSW Local Health District,Not reporting wait times,NSW Health API
Corowa Health Service,Not reporting wait times,02 6033 7555,,,53 Guy Street,Corowa,2646,NSW,"53 Guy Street, Corowa, NSW, 2646",Murrumbidgee Local Health District,Not reporting wait times,NSW Health API
Corowa Residential Aged Care,No emergency department,02 6033 7555,,,53 Guy Street,Corowa,2646,NSW,"53 Guy Street, Corowa, NSW, 2646",Murrumbidgee Local Health District,No emergency department,NSW Health API
Cowra District Hospital,Not reporting wait times,02 5338 5500,,,64 Liverpool Street,Cowra,2794,NSW,"64 Liverpool Street, Cowra, NSW, 2794",Western NSW Local Health District,Not reporting wait times,NSW Health API
Crookwell District Hospital,Not reporting wait times,02 4832 1300,,,Kialla Road,Crookwell,2583,NSW,"Kialla Road, Crookwell, NSW, 2583",Southern NSW Local Health District,Not reporting wait times,NSW Health API
Culcairn Health Service,Not reporting wait times,02 6029 8203,,,57 Balfour Street,Culcairn,2660,NSW,"57 Balfour Street, Culcairn, NSW, 2660",Murrumbidgee Local Health District,Not reporting wait times,NSW Health API
Culcairn Residential Aged Care,No emergency department,02 6029 8203,,,51-55 Balfour Street,Culcairn,2660,NSW,"51-55 Balfour Street, Culcairn, NSW, 2660",Murrumbidgee Local Health District,No emergency department,NSW Health API
David Berry Hospital,No emergency department,02 4464 1001,,,85 Tannery Road,Berry,2535,NSW,"85 Tannery Road, Berry, NSW, 2535",Illawarra Shoalhaven Local Health District,No emergency department,NSW Health API
Delegate Multi-Purpose Service,Not reporting wait times,02 6459 8000,,,Craigie Street,Delegate,2633,NSW,"Craigie Street, Delegate, NSW, 2633",Southern NSW Local Health District,Not reporting wait times,NSW Health API
Delegate Residential Aged Care,No emergency department,02 6458 8008,,,6 Craigie Street,Delegate,2633,NSW,"6 Craigie Street, Delegate, NSW, 2633",Southern NSW Local Health District,No emergency department,NSW Health API
Deniliquin Hospital,Not reporting wait times,03 5882 2800,,,411 Charlotte Street,Deniliquin,2710,NSW,"411 Charlotte Street, Deniliquin, NSW, 2710",Murrumbidgee Local Health District,Not reporting wait times,NSW Health API
Denman Multi Purpose Service,Not reporting wait times,02 6547 3999,,,51-53 Ogilvie St,Denman,2328,NSW,"51-53 Ogilvie St, Denman, NSW, 2328",Hunter New England Local Health District,Not reporting wait times,NSW Health API
Denman Residential Aged Care,No emergency department,02 6547 3999,,,51-53 Ogilvie St,Denman,2328,NSW,"51-53 Ogilvie St, Denman, NSW, 2328",Hunter New England Local Health District,No emergency department,NSW Health API
Dorrigo Multi-Purpose Service,Not reporting wait times,02 6692 7700,,,Beech Street,Dorrigo,2453,NSW,"Beech Street, Dorrigo, NSW, 2453",Mid North Coast Local Health District,Not reporting wait times,NSW Health API
Dorrigo Residential Aged Care,No emergency department,02 6692 7700,,,Beech Street,Dorrigo,2453,NSW,"Beech Street, Dorrigo, NSW, 2453",Mid North Coast Local Health District,No emergency department,NSW Health API
Dubbo Base Hospital,Reporting wait times,02 6809 6809,,,Myall Street,Dubbo,2830,NSW,"Myall Street, Dubbo, NSW, 2830",Western NSW Local Health District,Reporting wait times,NSW Health API
Dunedoo Health Service,Not reporting wait times,02 6375 1408,,,Digilah Street,Dunedoo,2844,NSW,"Digilah Street, Dunedoo, NSW, 2844",Western NSW Local Health District,Not reporting wait times,NSW Health API
Dunedoo Residential Aged Care,No emergency department,02 6375 1408,,,Digilah Street,Dunedoo,2844,NSW,"Digilah Street, Dunedoo, NSW, 2844",Western NSW Local Health District,No emergency department,NSW Health API
Dungog Community Hospital,Not reporting wait times,02 4995 7000,,,22 Hospital Road,Dungog,2420,NSW,"22 Hospital Road, Dungog, NSW, 2420",Hunter New England Local Health District,Not reporting wait times,NSW Health API
Emmaville - Vegetable Creek Residential Aged Care,No emergency department,02 6734 7900,,,13-33 Glen Inns Road,Emmaville,2371,NSW,"13-33 Glen Inns Road, Emmaville, NSW, 2371",Hunter New England Local Health District,No emergency department,NSW Health API
Eugowra Memorial Multi Purpose Service,Not reporting wait times,02 6850 4000,,,Hill Street,Eugowra,2806,NSW,"Hill Street, Eugowra, NSW, 2806",Western NSW Local Health District,Not reporting wait times,NSW Health API
Fairfield Hospital,Reporting wait times,02 9616 8111,,,Cnr Polding Street & Prairievale Road,Fairfield,2176,NSW,"Cnr Polding Street & Prairievale Road, Fairfield, NSW, 2176",South Western Sydney Local Health District,Reporting wait times,NSW Health API
Finley Hospital & Community Health Centre,Not reporting wait times,03 5883 1133,,,Dawe Avenue,Finley,2713,NSW,"Dawe Avenue, Finley, NSW, 2713",Murrumbidgee Local Health District,Not reporting wait times,NSW Health API
Forbes District Hospital,Not reporting wait times,02 6850 2000,,,Elgin Street,Forbes,2871,NSW,"Elgin Street, Forbes, NSW, 2871",Western NSW Local Health District,Not reporting wait times,NSW Health API
Garrawarra Centre for Aged Care,No emergency department,02 9548 4700,,,Princes Highway,Waterfall,2233,NSW,"Princes Highway, Waterfall, NSW, 2233",South Eastern Sydney Local Health District,No emergency department,NSW Health API
Gilgandra Multi-Purpose Health Service,Not reporting wait times,02 6880 5900,,,Chelmsford Avenue,Gilgandra,2827,NSW,"Chelmsford Avenue, Gilgandra, NSW, 2827",Western NSW Local Health District,Not reporting wait times,NSW Health API
Gilgandra Residential Aged Care,No emergency department,02 6847 2366,,,Chelmsford Avenue,Gilgandra,2827,NSW,"Chelmsford Avenue, Gilgandra, NSW, 2827",Western NSW Local Health District,No emergency department,NSW Health API
Glen Innes District Hospital,Not reporting wait times,02 6739 0200,,,94 Taylor Street,Glen Innes,2370,NSW,"94 Taylor Street, Glen Innes, NSW, 2370",Hunter New England Local Health District,Not reporting wait times,NSW Health API
Gloucester Soldiers Memorial - Nursing Home Unit,No emergency department,02 6538 5047,,,Hay Street,Gloucester,2422,NSW,"Hay Street, Gloucester, NSW, 2422",Hunter New England Local Health District,No emergency department,NSW Health API
Gloucester Soldiers Memorial Hospital,Not reporting wait times,02 6538 5000,,,Church Street,Gloucester,2422,NSW,"Church Street, Gloucester, NSW, 2422",Hunter New England Local Health District,Not reporting wait times,NSW Health API
Gosford Hospital,Reporting wait times,02 4320 2111,,,Holden Street,Gosford,2250,NSW,"Holden Street, Gosford, NSW, 2250",Central Coast Local Health District,Reporting wait times,NSW Health API
Goulburn Base Hospital,Reporting wait times,02 4827 3111,,,130 Goldsmith Street,Goulburn,2580,NSW,"130 Goldsmith Street, Goulburn, NSW, 2580",Southern NSW Local Health District,Reporting wait times,NSW Health API
Governor Phillip Residential Aged Care Facility,No emergency department,02 4734 2000,,,Glebe Place,Penrith,2750,NSW,"Glebe Place, Penrith, NSW, 2750",Nepean Blue Mountains Local Health District,No emergency department,NSW Health API
Gower Wilson - Multi-Purpose Service,No emergency department,02 6563 2000,,,Lord Howe Island,Lord Howe Island,2898,NSW,"Lord Howe Island, Lord Howe Island, NSW, 2898",South Eastern Sydney Local Health District,No emergency department,NSW Health API
Grafton Base Hospital,Reporting wait times,02 6640 2222,,,Arthur Street,Grafton,2460,NSW,"Arthur Street, Grafton, NSW, 2460",Northern NSW Local Health District,Reporting wait times,NSW Health API
Greenwich Hospital,No emergency department,02 9903 8305,,,River Road,Greenwich,2065,NSW,"River Road, Greenwich, NSW, 2065",Northern Sydney Local Health District,No emergency department,NSW Health API
Grenfell Multi-Purpose Service,Not reporting wait times,02 6349 1700,,,Sullivan Street,Grenfell,2810,NSW,"Sullivan Street, Grenfell, NSW, 2810",Western NSW Local Health District,Not reporting wait times,NSW Health API
Grenfell Residential Aged Care,No emergency department,02 6349 1700,,,Sullivan Street,Grenfell,2810,NSW,"Sullivan Street, Grenfell, NSW, 2810",Western NSW Local Health District,No emergency department,NSW Health API
Griffith Base Hospital,Reporting wait times,02 6969 5555,,,Warrambool Street,Griffith,2680,NSW,"Warrambool Street, Griffith, NSW, 2680",Murrumbidgee Local Health District,Reporting wait times,NSW Health API
Gulargambone Multi-Purpose Service,Not reporting wait times,02 6825 1201,,,Bourbah Street,Gulargambone,2828,NSW,"Bourbah Street, Gulargambone, NSW, 2828",Western NSW Local Health District,Not reporting wait times,NSW Health API
Gulargambone Residential Age Care,No emergency department,02 6825 1201,,,Bourbah Street,Gulargambone,2828,NSW,"Bourbah Street, Gulargambone, NSW, 2828",Western NSW Local Health District,No emergency department,NSW Health API
Gundagai District Hospital,Not reporting wait times,02 6944 1022,,,O'Hagen Street,Gundagai,2722,NSW,"O'Hagen Street, Gundagai, NSW, 2722",Murrumbidgee Local Health District,Not reporting wait times,NSW Health API
Gunnedah District Hospital,Reporting wait times,02 6741 8000,,,Marquis Street,Gunnedah,2380,NSW,"Marquis Street, Gunnedah, NSW, 2380",Hunter New England Local Health District,Reporting wait times,NSW Health API
Guyra Multi Purpose Service,Not reporting wait times,02 6738 4000,,,44-48 Sole Street,Guyra,2365,NSW,"44-48 Sole Street, Guyra, NSW, 2365",Hunter New England Local Health District,Not reporting wait times,NSW Health API
Guyra Residential Aged Care,No emergency department,02 6738 4000,,,48 Sole Street,Guyra,2365,NSW,"48 Sole Street, Guyra, NSW, 2365",Hunter New England Local Health District,No emergency department,NSW Health API
Hay District Hospital,Not reporting wait times,02 6990 8700,,,351 Murray Street,Hay,2711,NSW,"351 Murray Street, Hay, NSW, 2711",Murrumbidgee Local Health District,Not reporting wait times,NSW Health API
Hay Residential Age Care,No emergency department,02 6990 8700,,,351 Murray Street,Hay,2711,NSW,"351 Murray Street, Hay, NSW, 2711",Murrumbidgee Local Health District,No emergency department,NSW Health API
Henty Hospital,Not reporting wait times,02 6929 4999,,,"Henty Community Health Centre, Ivor Street",Henty,2658,NSW,"Henty Community Health Centre, Ivor Street, Henty, NSW, 2658",Murrumbidgee Local Health District,Not reporting wait times,NSW Health API
Henty Residential Aged Care,No emergency department,02 6929 4999,,,7 Keighran Street,Henty,2658,NSW,"7 Keighran Street, Henty, NSW, 2658",Murrumbidgee Local Health District,No emergency department,NSW Health API
Hillston District Hospital,Not reporting wait times,02 6961 7200,,,Burns Street,Hillston,2675,NSW,"Burns Street, Hillston, NSW, 2675",Murrumbidgee Local Health District,Not reporting wait times,NSW Health API
Holbrook District Hospital,Not reporting wait times,02 6036 2522,,,Bowler Street,Holbrook,2644,NSW,"Bowler Street, Holbrook, NSW, 2644",Murrumbidgee Local Health District,Not reporting wait times,NSW Health API
Holbrook Residential Aged Care,No emergency department,02 6036 2522,,,Bowler Street,Holbrook,2644,NSW,"Bowler Street, Holbrook, NSW, 2644",Murrumbidgee Local Health District,No emergency department,NSW Health API
Hornsby Ku-ring-gai Hospital,Reporting wait times,02 9477 9123,,,Palmerston Rd,Hornsby,2077,NSW,"Palmerston Rd, Hornsby, NSW, 2077",Northern Sydney Local Health District,Reporting wait times,NSW Health API
Inverell District Hospital,Reporting wait times,02 6721 9500,,,41 Swanbrook Rd,Inverell,2360,NSW,"41 Swanbrook Rd, Inverell, NSW, 2360",Hunter New England Local Health District,Reporting wait times,NSW Health API
Jerilderie Health Service,Not reporting wait times,03 5886 1300,,,Newell Highway,Jerilderie,2716,NSW,"Newell Highway, Jerilderie, NSW, 2716",Murrumbidgee Local Health District,Not reporting wait times,NSW Health API
Jerilderie Residential Aged Care,No emergency department,03 5886 1300,,,Corner of South Coree Road and West Street,Jerilderie,2716,NSW,"Corner of South Coree Road and West Street, Jerilderie, NSW, 2716",Murrumbidgee Local Health District,No emergency department,NSW Health API
John Hunter Hospital (including Royal Newcastle Centre and John Hunter Children's Hospital),Reporting wait times,02 4921 3000,,,Lookout Road,New Lambton Heights,2305,NSW,"Lookout Road, New Lambton Heights, NSW, 2305",Hunter New England Local Health District,Reporting wait times,NSW Health API
Junee District Hospital,Not reporting wait times,02 6924 8200,,,67 Broadway Street,Junee,2663,NSW,"67 Broadway Street, Junee, NSW, 2663",Murrumbidgee Local Health District,Not reporting wait times,NSW Health API
Junee Residential Aged Care,No emergency department,02 6924 1122,,,24-28 Commins Street,Junee,2663,NSW,"24-28 Commins Street, Junee, NSW, 2663",Murrumbidgee Local Health District,No emergency department,NSW Health API
Kempsey District Hospital,Reporting wait times,02 6562 6155,,,119 River Street,Kempsey,2440,NSW,"119 River Street, Kempsey, NSW, 2440",Mid North Coast Local Health District,Reporting wait times,NSW Health API
Kiama Hospital and Community Health Service,No emergency department,02 4233 1033,,,Bonaira Street,Kiama,2533,NSW,"Bonaira Street, Kiama, NSW, 2533",Illawarra Shoalhaven Local Health District,No emergency department,NSW Health API
Kiama Hospital Nursing Home,No emergency department,02 4233 1033,,,Bonaire Street,Kiama,2533,NSW,"Bonaire Street, Kiama, NSW, 2533",Illawarra Shoalhaven Local Health District,No emergency department,NSW Health API
Kimbarra Lodge Hostel - Gloucester Soldiers Memorial Hospital,No emergency department,02 6558 1307,,,Hay Street,Gloucester,2422,NSW,"Hay Street, Gloucester, NSW, 2422",Hunter New England Local Health District,No emergency department,NSW Health API
Kurri Kurri Hospital,Not reporting wait times,02 4936 3200,,,Lang Street,Kurri Kurri,2327,NSW,"Lang Street, Kurri Kurri, NSW, 2327",Hunter New England Local Health District,Not reporting wait times,NSW Health API
Kyogle Memorial Hospital,Not reporting wait times,02 6632 1522,,,Summerland Way,Kyogle,2474,NSW,"Summerland Way, Kyogle, NSW, 2474",Northern NSW Local Health District,Not reporting wait times,NSW Health API
Kyogle Residential Age Care,No emergency department,02 6632 1522,,,Summerland Way,Kyogle,2474,NSW,"Summerland Way, Kyogle, NSW, 2474",Northern NSW Local Health District,No emergency department,NSW Health API
Lake Cargelligo District Hospital,Not reporting wait times,02 6898 1200,,,Uabba Street,Lake Cargelligo,2672,NSW,"Uabba Street, Lake Cargelligo, NSW, 2672",Murrumbidgee Local Health District,Not reporting wait times,NSW Health API
Lake Cargelligo Residential Aged Care,No emergency department,02 6898 1200,,,Uabba Street,Lake Cargelligo,2672,NSW,"Uabba Street, Lake Cargelligo, NSW, 2672",Murrumbidgee Local Health District,No emergency department,NSW Health API
Leeton District Hospital,Not reporting wait times,02 6953 1111,,,Wade Avenue & Palm Avenue,Leeton,2705,NSW,"Wade Avenue & Palm Avenue, Leeton, NSW, 2705",Murrumbidgee Local Health District,Not reporting wait times,NSW Health API
Leeton Residential Age Care,No emergency department,02 6953 1111,,,Cnr Palm Avenue & Wade Avenue,Leeton,2705,NSW,"Cnr Palm Avenue & Wade Avenue, Leeton, NSW, 2705",Murrumbidgee Local Health District,No emergency department,NSW Health API
Lightning Ridge Multi Purpose Health Service,Not reporting wait times,02 6829 9999,,,20 Pandora Street,Lightning Ridge,2834,NSW,"20 Pandora Street, Lightning Ridge, NSW, 2834",Western NSW Local Health District,Not reporting wait times,NSW Health API
Lightning Ridge Residential Aged Care,No emergency department,02 6829 9999,,,20 Pandora Street,Lightning Ridge,2834,NSW,"20 Pandora Street, Lightning Ridge, NSW, 2834",Western NSW Local Health District,No emergency department,NSW Health API
Lismore Base Hospital,Reporting wait times,02 6621 8000,,,Uralba Street,Lismore,2480,NSW,"Uralba Street, Lismore, NSW, 2480",Northern NSW Local Health District,Reporting wait times,NSW Health API
Lithgow Integrated Health Service,Reporting wait times,02 6350 2300,,,Col Drewe Drive,Lithgow,2790,NSW,"Col Drewe Drive, Lithgow, NSW, 2790",Nepean Blue Mountains Local Health District,Reporting wait times,NSW Health API
Liverpool Hospital,Reporting wait times,02 8738 3000,,,Cnr Elizabeth & Goulburn Street,Liverpool,2170,NSW,"Cnr Elizabeth & Goulburn Street, Liverpool, NSW, 2170",South Western Sydney Local Health District,Reporting wait times,NSW Health API
Lockhart & District Hospital,Not reporting wait times,02 6920 5206,,,Hebden Street,Lockhart,2656,NSW,"Hebden Street, Lockhart, NSW, 2656",Murrumbidgee Local Health District,Not reporting wait times,NSW Health API
Long Jetty Health Care Facility,No emergency department,02 4336 7700,,,Wyong Road,Killarney Vale,2261,NSW,"Wyong Road, Killarney Vale, NSW, 2261",Central Coast Local Health District,No emergency department,NSW Health API
Lottie Stewart Hospital and Aged Care,No emergency department,02 9858 3255,,,40 Stewart Street,Dundas,2117,NSW,"40 Stewart Street, Dundas, NSW, 2117",Western Sydney Local Health District,No emergency department,NSW Health API
Macksville District Hospital,Not reporting wait times,02 6568 0666,,,Boundary Street,Macksville,2447,NSW,"Boundary Street, Macksville, NSW, 2447",Mid North Coast Local Health District,Not reporting wait times,NSW Health API
Maclean District Hospital,Not reporting wait times,02 6640 0111,,,21 Union Street,Maclean,2463,NSW,"21 Union Street, Maclean, NSW, 2463",Northern NSW Local Health District,Not reporting wait times,NSW Health API
Manilla Health Service,Not reporting wait times,02 6785 4000,,,Court Street,Manilla,2346,NSW,"Court Street, Manilla, NSW, 2346",Hunter New England Local Health District,Not reporting wait times,NSW Health API
Manly Hospital,No emergency department,02 9976 9611,,,Darley Road,Manly,2095,NSW,"Darley Road, Manly, NSW, 2095",Northern Sydney Local Health District,No emergency department,NSW Health API
Manning Rural Referral Hospital (Taree),Reporting wait times,02 6592 9111,,,26 York Street,Taree,2430,NSW,"26 York Street, Taree, NSW, 2430",Hunter New England Local Health District,Reporting wait times,NSW Health API
Mercy Care Hospital - Young,No emergency department,02 6382 8888,,,69 Demondrille Street,Young,2594,NSW,"69 Demondrille Street, Young, NSW, 2594",Murrumbidgee Local Health District,No emergency department,NSW Health API
Mercy Health Service,No emergency department,02 6021 3322,,,Poole Street,Albury,2640,NSW,"Poole Street, Albury, NSW, 2640",Murrumbidgee Local Health District,No emergency department,NSW Health API
Mercy Health Service Albury Residential Aged Care,No emergency department,02 6021 3322,,,Poole Street,Albury,2640,NSW,"Poole Street, Albury, NSW, 2640",Murrumbidgee Local Health District,No emergency department,NSW Health API
Merriwa Multi Purpose Service,Not reporting wait times,02 6532 5000,,,60 McKenzie Street,Merriwa,2329,NSW,"60 McKenzie Street, Merriwa, NSW, 2329",Hunter New England Local Health District,Not reporting wait times,NSW Health API
Merriwa Residential Aged Care,No emergency department,02 6548 2006,,,60 McKenzie Street,Merriwa,2329,NSW,"60 McKenzie Street, Merriwa, NSW, 2329",Hunter New England Local Health District,No emergency department,NSW Health API
Milton Ulladulla Hospital,Reporting wait times,02 4455 1333,,,106 Princes Highway,Milton,2538,NSW,"106 Princes Highway, Milton, NSW, 2538",Illawarra Shoalhaven Local Health District,Reporting wait times,NSW Health API
Molong Health Service,Not reporting wait times,02 6392 3300,,,King Street,Molong,2866,NSW,"King Street, Molong, NSW, 2866",Western NSW Local Health District,Not reporting wait times,NSW Health API
Mona Vale Hospital,Not reporting wait times,02 9998 0333,,,Coronation Street,Mona Vale,2103,NSW,"Coronation Street, Mona Vale, NSW, 2103",Northern Sydney Local Health District,Not reporting wait times,NSW Health API
Moree District Hospital,Reporting wait times,02 6757 0000,,,Alice Street,Moree,2400,NSW,"Alice Street, Moree, NSW, 2400",Hunter New England Local Health District,Reporting wait times,NSW Health API
Moruya District Hospital,Not reporting wait times,02 4474 2666,,,River Street,Moruya,2537,NSW,"River Street, Moruya, NSW, 2537",Southern NSW Local Health District,Not reporting wait times,NSW Health API
Mount Druitt Hospital,Reporting wait times,02 9881 1555,,,75 Railway St,Mount Druitt,2770,NSW,"75 Railway St, Mount Druitt, NSW, 2770",Western Sydney Local Health District,Reporting wait times,NSW Health API
Mudgee Health Service,Not reporting wait times,02 6378 6222,,,Meares Street,Mudgee,2850,NSW,"Meares Street, Mudgee, NSW, 2850",Western NSW Local Health District,Not reporting wait times,NSW Health API
Mullumbimby & District War Memorial Hospital,Not reporting wait times,02 6684 2266,,,Azalea Street,Mullumbimby,2482,NSW,"Azalea Street, Mullumbimby, NSW, 2482",Northern NSW Local Health District,Not reporting wait times,NSW Health API
Murrumburah-Harden Residential Aged Care,No emergency department,02 6386 2200,,,Swift Street,Harden,2587,NSW,"Swift Street, Harden, NSW, 2587",Murrumbidgee Local Health District,No emergency department,NSW Health API
Murrumburrah-Harden District Hospital,Not reporting wait times,02 6386 2200,,,Swift Street,Harden,2587,NSW,"Swift Street, Harden, NSW, 2587",Murrumbidgee Local Health District,Not reporting wait times,NSW Health API
Murwillumbah District Hospital,Reporting wait times,02 6672 0000,,,Ewing Street,Murwillumbah,2484,NSW,"Ewing Street, Murwillumbah, NSW, 2484",Northern NSW Local Health District,Reporting wait times,NSW Health API
Muswellbrook Hospital,Reporting wait times,02 6542 2000,,,Brentwood Street,Muswellbrook,2333,NSW,"Brentwood Street, Muswellbrook, NSW, 2333",Hunter New England Local Health District,Reporting wait times,NSW Health API
Muswellbrook Hospital - Nursing Home Unit,No emergency department,02 6542 2022,,,Brentwood Street,Muswellbrook,2333,NSW,"Brentwood Street, Muswellbrook, NSW, 2333",Hunter New England Local Health District,No emergency department,NSW Health API
Narrabri District Hospital,Reporting wait times,02 6799 2800,,,66 Gibbons Street,Narrabri,2390,NSW,"66 Gibbons Street, Narrabri, NSW, 2390",Hunter New England Local Health District,Reporting wait times,NSW Health API
Narrandera District Hospital,Not reporting wait times,02 6959 1166,,,54 Adams Street,Narrandera,2700,NSW,"54 Adams Street, Narrandera, NSW, 2700",Murrumbidgee Local Health District,Not reporting wait times,NSW Health API
Narromine Hospital & Community Health,Not reporting wait times,02 6889 1377,,,128 Cathundril Street,Narromine,2821,NSW,"128 Cathundril Street, Narromine, NSW, 2821",Western NSW Local Health District,Not reporting wait times,NSW Health API
Nepean Hospital,Reporting wait times,02 4734 2000,,,Derby Street,Kingswood,2747,NSW,"Derby Street, Kingswood, NSW, 2747",Nepean Blue Mountains Local Health District,Reporting wait times,NSW Health API
Neringah Hospital,No emergency department,02 9488 2200,,,4-12 Neringah Avenue South,Wahroonga,2076,NSW,"4-12 Neringah Avenue South, Wahroonga, NSW, 2076",Northern Sydney Local Health District,No emergency department,NSW Health API
Nimbin Multi-Purpose Service,Not reporting wait times,02 6689 1400,,,35 Cullen Street,Nimbin,2480,NSW,"35 Cullen Street, Nimbin, NSW, 2480",Northern NSW Local Health District,Not reporting wait times,NSW Health API
Nimbin Residential Aged Care,No emergency department,02 6689 1400,,,35 Cullen Street,Nimbin,2480,NSW,"35 Cullen Street, Nimbin, NSW, 2480",Northern NSW Local Health District,No emergency department,NSW Health API
Northern Beaches Hospital,Reporting wait times,02 9105 5000,,,105 Frenchs Forest Road W,Frenchs Forest,2086,NSW,"105 Frenchs Forest Road W, Frenchs Forest, NSW, 2086",Northern Sydney Local Health District,Reporting wait times,NSW Health API
Nyngan Multi-Purpose Service,Not reporting wait times,02 6835 1700,,,15 Hoskins Street,Nyngan,2825,NSW,"15 Hoskins Street, Nyngan, NSW, 2825",Western NSW Local Health District,Not reporting wait times,NSW Health API
Nyngan Residential Aged Care,No emergency department,02 6835 1700,,,15 Hoskins Street,Nyngan,2825,NSW,"15 Hoskins Street, Nyngan, NSW, 2825",Western NSW Local Health District,No emergency department,NSW Health API
Oberon Health Service,Not reporting wait times,02 6336 7200,,,75 North Street,Oberon,2787,NSW,"75 North Street, Oberon, NSW, 2787",Western NSW Local Health District,Not reporting wait times,NSW Health API
Oberon Residential Aged Care,No emergency department,02 6336 7200,,,North Street,Oberon,2787,NSW,"North Street, Oberon, NSW, 2787",Western NSW Local Health District,No emergency department,NSW Health API
Orange Health Service,Reporting wait times,02 6369 3000,,,1502 Forest Road,Orange,2800,NSW,"1502 Forest Road, Orange, NSW, 2800",Western NSW Local Health District,Reporting wait times,NSW Health API
Pambula District Hospital,Not reporting wait times,02 6495 8200,,,Merimbola Street,Pambula,2549,NSW,"Merimbola Street, Pambula, NSW, 2549",Southern NSW Local Health District,Not reporting wait times,NSW Health API
Parkes District Hospital,Not reporting wait times,(02) 6861 2400,,,18 Coleman Road,Parkes,2870,NSW,"18 Coleman Road, Parkes, NSW, 2870",Western NSW Local Health District,Not reporting wait times,NSW Health API
Peak Hill Health Service,Not reporting wait times,02 6869 5200,,,Newell Highway,Peak Hill,2869,NSW,"Newell Highway, Peak Hill, NSW, 2869",Western NSW Local Health District,Not reporting wait times,NSW Health API
Peg Cross Nursing Home,No emergency department,02 6828 6000,,,Fox Street,Walgett,2832,NSW,"Fox Street, Walgett, NSW, 2832",Western NSW Local Health District,No emergency department,NSW Health API
Port Kembla Hospital,No emergency department,02 4223 8000,,,Cowper Street,Port Kembla,2505,NSW,"Cowper Street, Port Kembla, NSW, 2505",Illawarra Shoalhaven Local Health District,No emergency department,NSW Health API
Port Macquarie Base Hospital,Reporting wait times,02 6581 2000,,,Wrights Rd,Port Macquarie,2444,NSW,"Wrights Rd, Port Macquarie, NSW, 2444",Mid North Coast Local Health District,Reporting wait times,NSW Health API
Portland Tabulam Health Centre,No emergency department,02 6359 2666,,,20 Green Street,Portland,2847,NSW,"20 Green Street, Portland, NSW, 2847",Nepean Blue Mountains Local Health District,No emergency department,NSW Health API
Prince of Wales Hospital,Reporting wait times,02 9382 2222,,,Magill St,Randwick,2031,NSW,"Magill St, Randwick, NSW, 2031",South Eastern Sydney Local Health District,Reporting wait times,NSW Health API
Queanbeyan District Hospital,Not reporting wait times,02 6298 9211,,,Corner Erin & Collett Streets,Queanbeyan,2620,NSW,"Corner Erin & Collett Streets, Queanbeyan, NSW, 2620",Southern NSW Local Health District,Not reporting wait times,NSW Health API
Queen Victoria Memorial Home,No emergency department,02 4683 6900,,,615 Thirlmere Way,Picton,2571,NSW,"615 Thirlmere Way, Picton, NSW, 2571",South Western Sydney Local Health District,No emergency department,NSW Health API
Quirindi Community Hospital,Not reporting wait times,02 6746 0200,,,Nowland Street,Quirindi,2343,NSW,"Nowland Street, Quirindi, NSW, 2343",Hunter New England Local Health District,Not reporting wait times,NSW Health API
Royal Hospital for Women,No emergency department,02 9382 6111,,,Barker Street,Randwick,2031,NSW,"Barker Street, Randwick, NSW, 2031",South Eastern Sydney Local Health District,No emergency department,NSW Health API
Royal North Shore Hospital,Reporting wait times,02 9926 7111,,,Pacific Highway,St Leonards,2065,NSW,"Pacific Highway, St Leonards, NSW, 2065",Northern Sydney Local Health District,Reporting wait times,NSW Health API
Royal Prince Alfred Hospital,Reporting wait times,02 9515 6111,,,Missenden Road,Camperdown,2050,NSW,"Missenden Road, Camperdown, NSW, 2050",Sydney Local Health District,Reporting wait times,NSW Health API
Royal Rehabilitation Hospital - Coorabel/Moorong,No emergency department,02 9807 1144,,,227 Morrison Road,Ryde,2112,NSW,"227 Morrison Road, Ryde, NSW, 2112",Northern Sydney Local Health District,No emergency department,NSW Health API
Ryde Hospital,Reporting wait times,02 9874 0199,,,Denistone Road,Eastwood,2122,NSW,"Denistone Road, Eastwood, NSW, 2122",Northern Sydney Local Health District,Reporting wait times,NSW Health API
Rylstone Multi-Purpose Health Service,Not reporting wait times,02 6357 8100,,,Fitzgerald Street,Rylstone,2849,NSW,"Fitzgerald Street, Rylstone, NSW, 2849",Western NSW Local Health District,Not reporting wait times,NSW Health API
Sacred Heart Hospice,No emergency department,02 8382 9444,,,170 Darlinghurst Road,Darlinghurst,2010,NSW,"170 Darlinghurst Road, Darlinghurst, NSW, 2010",St Vincent's Health Network,No emergency department,NSW Health API
"Scott Memorial Hospital, Scone",Not reporting wait times,02 6540 2100,,,Stafford Street,Scone,2337,NSW,"Stafford Street, Scone, NSW, 2337",Hunter New England Local Health District,Not reporting wait times,NSW Health API
Shellharbour Hospital,Reporting wait times,02 4295 2500,,,15-17 Madigan Boulevarde,Mt Warrigal,2528,NSW,"15-17 Madigan Boulevarde, Mt Warrigal, NSW, 2528",Illawarra Shoalhaven Local Health District,Reporting wait times,NSW Health API
Shoalhaven Hospital,Reporting wait times,02 4421 3111,,,Shoalhaven Street,Nowra,2541,NSW,"Shoalhaven Street, Nowra, NSW, 2541",Illawarra Shoalhaven Local Health District,Reporting wait times,NSW Health API
Singleton District Hospital,Reporting wait times,02 6571 9222,,,Dangar Road,Singleton,2330,NSW,"Dangar Road, Singleton, NSW, 2330",Hunter New England Local Health District,Reporting wait times,NSW Health API
Springwood Hospital,No emergency department,02 4751 0300,,,Huntley Grange Road,Springwood,2777,NSW,"Huntley Grange Road, Springwood, NSW, 2777",Nepean Blue Mountains Local Health District,No emergency department,NSW Health API
St Catherines Villa Nursing Home,No emergency department,02 9805 1655,,,162-166 Balaclava Road,Eastwood,2122,NSW,"162-166 Balaclava Road, Eastwood, NSW, 2122",Northern Sydney Local Health District,No emergency department,NSW Health API
St George Hospital,Reporting wait times,02 9113 1111,,,Belgrave Street,Kogarah,2217,NSW,"Belgrave Street, Kogarah, NSW, 2217",South Eastern Sydney Local Health District,Reporting wait times,NSW Health API
St John of God Hospital,No emergency department,02 4823 7800,,,234 Bourke Street,Goulburn,2580,NSW,"234 Bourke Street, Goulburn, NSW, 2580",Southern NSW Local Health District,No emergency department,NSW Health API
St Joseph's Hospital,No emergency department,02 9649 8941,,,Normanby Road,Auburn,2144,NSW,"Normanby Road, Auburn, NSW, 2144",St Vincent's Health Network,No emergency department,NSW Health API
St Vincent's Hospital,Reporting wait times,02 8382 1111,,,390 Victoria Street,Darlinghurst,2010,NSW,"390 Victoria Street, Darlinghurst, NSW, 2010",St Vincent's Health Network,Reporting wait times,NSW Health API
Sutherland Hospital & Community Health Service,Reporting wait times,02 9540 7111,,,Cnr The Kingsway and Kareena Road,Caringbah,2229,NSW,"Cnr The Kingsway and Kareena Road, Caringbah, NSW, 2229",South Eastern Sydney Local Health District,Reporting wait times,NSW Health API
Sydney Children's Hospital,Reporting wait times,02 9382 1111,,,High Street,Randwick,2031,NSW,"High Street, Randwick, NSW, 2031",Sydney Children's Hospitals Specialty Network,Reporting wait times,NSW Health API
Sydney Hospital & Sydney Eye Hospital,Reporting wait times,02 9382 7111,,,8 Macquarie Street,Sydney,2001,NSW,"8 Macquarie Street, Sydney, NSW, 2001",South Eastern Sydney Local Health District,Reporting wait times,NSW Health API
Tabulam Residential Aged Care,No emergency department,02 6359 2666,,,20 Green Street,Portland,2847,NSW,"20 Green Street, Portland, NSW, 2847",Nepean Blue Mountains Local Health District,No emergency department,NSW Health API
Tamworth Rural Referral Hospital,Reporting wait times,02 6767 7700,,,Dean Street,Tamworth,2340,NSW,"Dean Street, Tamworth, NSW, 2340",Hunter New England Local Health District,Reporting wait times,NSW Health API
Temora Hospital,Not reporting wait times,02 6977 1066,,,169 Temora Young Road,Temora,2666,NSW,"169 Temora Young Road, Temora, NSW, 2666",Murrumbidgee Local Health District,Not reporting wait times,NSW Health API
Tenterfield Community Hospital,Not reporting wait times,02 6739 5200,,,Naas St,Tenterfield,2372,NSW,"Naas St, Tenterfield, NSW, 2372",Hunter New England Local Health District,Not reporting wait times,NSW Health API
The Children's Hospital at Westmead,Reporting wait times,02 9845 0000,,,Cnr Hawkesbury Rd and Hainsworth St,Westmead,2145,NSW,"Cnr Hawkesbury Rd and Hainsworth St, Westmead, NSW, 2145",Sydney Children's Hospitals Specialty Network,Reporting wait times,NSW Health API
The Cootamundra Hospital,Not reporting wait times,02 6942 0444,,,Mackay Street,Cootamundra,2590,NSW,"Mackay Street, Cootamundra, NSW, 2590",Murrumbidgee Local Health District,Not reporting wait times,NSW Health API
The New Maitland Hospital,Reporting wait times,02 4087 1000,,,51 Metford Road,Metford,2323,NSW,"51 Metford Road, Metford, NSW, 2323",Hunter New England Local Health District,Reporting wait times,NSW Health API
Tingha Multi Purpose Service,Not reporting wait times,02 6723 3266,,,13997 Guyra Road,Tingha,2369,NSW,"13997 Guyra Road, Tingha, NSW, 2369",Hunter New England Local Health District,Not reporting wait times,NSW Health API
Tingha Residential Aged Care,No emergency department,02 6723 3266,,,13997 Guyra Road,Tingha,2369,NSW,"13997 Guyra Road, Tingha, NSW, 2369",Hunter New England Local Health District,No emergency department,NSW Health API
Tocumwal Hospital,Not reporting wait times,03 5874 2166,,,Adams Street,Tocomwal,2714,NSW,"Adams Street, Tocomwal, NSW, 2714",Murrumbidgee Local Health District,Not reporting wait times,NSW Health API
Tomaree Community Hospital,Not reporting wait times,02 4984 0700,,,Trevally Street,Nelson Bay,2315,NSW,"Trevally Street, Nelson Bay, NSW, 2315",Hunter New England Local Health District,Not reporting wait times,NSW Health API
Tottenham Hospital,Not reporting wait times,02 6891 6200,,,Umang Street,Tottenham,2873,NSW,"Umang Street, Tottenham, NSW, 2873",Western NSW Local Health District,Not reporting wait times,NSW Health API
Tottenham Residential Aged Care,No emergency department,02 6892 4003,,,Umang Street,Tottenham,2873,NSW,"Umang Street, Tottenham, NSW, 2873",Western NSW Local Health District,No emergency department,NSW Health API
Trangie Multi-Purpose Health Service,Not reporting wait times,02 6880 8200,,,28 Harris Street,Trangie,2823,NSW,"28 Harris Street, Trangie, NSW, 2823",Western NSW Local Health District,Not reporting wait times,NSW Health API
Trangie Residential Aged Care,No emergency department,02 6888 7546,,,29 Harris Street,Trangie,2823,NSW,"29 Harris Street, Trangie, NSW, 2823",Western NSW Local Health District,No emergency department,NSW Health API
Trundle Multi-Purpose Service,Not reporting wait times,02 6892 1051,,,Brookview Street,Trundle,2875,NSW,"Brookview Street, Trundle, NSW, 2875",Western NSW Local Health District,Not reporting wait times,NSW Health API
Trundle Residential Aged Care,No emergency department,02 6892 1051,,,Brookview Street,Trundle,2875,NSW,"Brookview Street, Trundle, NSW, 2875",Western NSW Local Health District,No emergency department,NSW Health API
Tullamore Health Service,Not reporting wait times,02 6892 5003,,,1 Hinkler Street,Tullamore,2874,NSW,"1 Hinkler Street, Tullamore, NSW, 2874",Western NSW Local Health District,Not reporting wait times,NSW Health API
Tullamore Residential Aged Care,No emergency department,02 6892 5003,,,1 Hinkler Street,Tullamore,2874,NSW,"1 Hinkler Street, Tullamore, NSW, 2874",Western NSW Local Health District,No emergency department,NSW Health API
Tumbarumba Multi Purpose Service,Not reporting wait times,02 6948 9600,,,Mitchell Street,Tumbarumba,2653,NSW,"Mitchell Street, Tumbarumba, NSW, 2653",Murrumbidgee Local Health District,Not reporting wait times,NSW Health API
Tumbarumba Residential Aged Care,No emergency department,02 6948 9600,,,4 Mitchell Street,Tumbarumba,2653,NSW,"4 Mitchell Street, Tumbarumba, NSW, 2653",Murrumbidgee Local Health District,No emergency department,NSW Health API
Tumut District Hospital,Not reporting wait times,02 6947 0800,,,Simpson Street,Tumut,2720,NSW,"Simpson Street, Tumut, NSW, 2720",Murrumbidgee Local Health District,Not reporting wait times,NSW Health API
Tweed Valley Hospital,Reporting wait times,02 6677 2000,,,771 Cudgen Road,Cudgen,2487,NSW,"771 Cudgen Road, Cudgen, NSW, 2487",Northern NSW Local Health District,Reporting wait times,NSW Health API
Urana Health Service,Not reporting wait times,02 6920 8106,,,Cnr Church and Princess St,Urana,2645,NSW,"Cnr Church and Princess St, Urana, NSW, 2645",Murrumbidgee Local Health District,Not reporting wait times,NSW Health API
Urana Residential Aged Care,No emergency department,02 6920 8106,,,Corner of Church and Princess St,Urana,2645,NSW,"Corner of Church and Princess St, Urana, NSW, 2645",Murrumbidgee Local Health District,No emergency department,NSW Health API
Urbenville Health Service,Not reporting wait times,02 6948 1319,,,45 Beaury Street,Urbenville,2475,NSW,"45 Beaury Street, Urbenville, NSW, 2475",Northern NSW Local Health District,Not reporting wait times,NSW Health API
Urbenville Residential Aged Care,No emergency department,02 6948 1319,,,45 Beaury Street,Urbenville,2475,NSW,"45 Beaury Street, Urbenville, NSW, 2475",Northern NSW Local Health District,No emergency department,NSW Health API
Vegetable Creek Hospital,Not reporting wait times,02 6734 7900,,,13-33 Glen Innes Road,Emmaville,2371,NSW,"13-33 Glen Innes Road, Emmaville, NSW, 2371",Hunter New England Local Health District,Not reporting wait times,NSW Health API
Wagga Wagga Base Hospital,Reporting wait times,02 5943 1000,,,Docker Street,Wagga Wagga,2650,NSW,"Docker Street, Wagga Wagga, NSW, 2650",Murrumbidgee Local Health District,Reporting wait times,NSW Health API
Walcha Multi Purpose Service,Not reporting wait times,02 6774 2366,,,11 South Middle Street,Walcha,2354,NSW,"11 South Middle Street, Walcha, NSW, 2354",Hunter New England Local Health District,Not reporting wait times,NSW Health API
Walcha Residential Aged Care,No emergency department,02 6774 2400,,,South Street,Walcha,2354,NSW,"South Street, Walcha, NSW, 2354",Hunter New England Local Health District,No emergency department,NSW Health API
Walgett Health Service,Not reporting wait times,02 6828 6000,,,141 Fox Street,Walgett,2832,NSW,"141 Fox Street, Walgett, NSW, 2832",Western NSW Local Health District,Not reporting wait times,NSW Health API
Wallsend Aged Care Facility,No emergency department,02 4924 6100,,,15 Nash Street,Wallsend,2287,NSW,"15 Nash Street, Wallsend, NSW, 2287",Hunter New England Local Health District,No emergency department,NSW Health API
War Memorial Hospital,No emergency department,02 9369 0100,,,125 Birrell Street,Waverley,2024,NSW,"125 Birrell Street, Waverley, NSW, 2024",South Eastern Sydney Local Health District,No emergency department,NSW Health API
Warialda Multi Purpose Service,Not reporting wait times,02 6728 9000,,,Long Street,Warialda,2402,NSW,"Long Street, Warialda, NSW, 2402",Hunter New England Local Health District,Not reporting wait times,NSW Health API
Warren Multi-Purpose Health Service,Not reporting wait times,02 6847 7200,,,Dr Kater Drive,Warren,2824,NSW,"Dr Kater Drive, Warren, NSW, 2824",Western NSW Local Health District,Not reporting wait times,NSW Health API
Warren Residential Aged Care,No emergency department,02 6847 7200,,,Dr Kater Drive,Warren,2824,NSW,"Dr Kater Drive, Warren, NSW, 2824",Western NSW Local Health District,No emergency department,NSW Health API
Wauchope District Memorial Hospital,No emergency department,02 6585 1300,,,69 High Street,Wauchope,2446,NSW,"69 High Street, Wauchope, NSW, 2446",Mid North Coast Local Health District,No emergency department,NSW Health API
Wee Waa Community Hospital,Not reporting wait times,02 6795 0400,,,Alma Street,Wee Waa,2388,NSW,"Alma Street, Wee Waa, NSW, 2388",Hunter New England Local Health District,Not reporting wait times,NSW Health API
Wellington Health Service,Not reporting wait times,02 6840 7200,,,Gisborne Street,Wellington,2820,NSW,"Gisborne Street, Wellington, NSW, 2820",Western NSW Local Health District,Not reporting wait times,NSW Health API
Wentworth District Hospital,Not reporting wait times,03 5027 2345,,,Silver City Hwy,Wentworth,2648,NSW,"Silver City Hwy, Wentworth, NSW, 2648",Far West Local Health District,Not reporting wait times,NSW Health API
Werris Creek Community Hospital,Not reporting wait times,02 6768 6600,,,North Street,Werris Creek,2341,NSW,"North Street, Werris Creek, NSW, 2341",Hunter New England Local Health District,Not reporting wait times,NSW Health API
Westmead Hospital,Reporting wait times,02 8890 5555,,,Cnr Hawkesbury & Darcy Road,Westmead,2145,NSW,"Cnr Hawkesbury & Darcy Road, Westmead, NSW, 2145",Western Sydney Local Health District,Reporting wait times,NSW Health API
Wilcannia Multi-Purpose Service,Not reporting wait times,08 8083 8777,,,14 Ross Street,Wilcannia,2836,NSW,"14 Ross Street, Wilcannia, NSW, 2836",Far West Local Health District,Not reporting wait times,NSW Health API
Wilcannia Residential Age Care,No emergency department,08 8083 8777,,,Ross Street,Wilcannia,2836,NSW,"Ross Street, Wilcannia, NSW, 2836",Far West Local Health District,No emergency department,NSW Health API
"Wilson Memorial Community Hospital, Murrurundi",Not reporting wait times,02 6546 9000,,,Cnr O'Connell & Paradise Rd,Murrurundi,2338,NSW,"Cnr O'Connell & Paradise Rd, Murrurundi, NSW, 2338",Hunter New England Local Health District,Not reporting wait times,NSW Health API
Wingham Community Hospital,No emergency department,02 6557 3400,,,32 Bungay Road,Wingham,2429,NSW,"32 Bungay Road, Wingham, NSW, 2429",Hunter New England Local Health District,No emergency department,NSW Health API
Wollongong Hospital,Reporting wait times,02 4222 5000,,,Loftus Street,Wollongong,2500,NSW,"Loftus Street, Wollongong, NSW, 2500",Illawarra Shoalhaven Local Health District,Reporting wait times,NSW Health API
Woy Woy Public Hospital,No emergency department,02 4344 8444,,,Ocean Beach Road,Woy Woy,2256,NSW,"Ocean Beach Road, Woy Woy, NSW, 2256",Central Coast Local Health District,No emergency department,NSW Health API
Wyalong Hospital,Not reporting wait times,02 6979 0000,,,70 Ungarie Road,West Wyalong,2671,NSW,"70 Ungarie Road, West Wyalong, NSW, 2671",Murrumbidgee Local Health District,Not reporting wait times,NSW Health API
Wyong Public Hospital,Reporting wait times,02 4394 8000,,,Pacific Highway,Kanwal,2259,NSW,"Pacific Highway, Kanwal, NSW, 2259",Central Coast Local Health District,Reporting wait times,NSW Health API
Yass District Hospital,Not reporting wait times,(02) 6220 2000,,,Meehan Street,Yass,2582,NSW,"Meehan Street, Yass, NSW, 2582",Southern NSW Local Health District,Not reporting wait times,NSW Health API
Young District Hospital,Not reporting wait times,02 6382 8888,,,Allanan Street,Young,2594,NSW,"Allanan Street, Young, NSW, 2594",Murrumbidgee Local Health District,Not reporting wait times,NSW Health API
